[{"OBJECT_NAME":"GAOFEN-9 05","OBJECT_ID":"2020-058A","EPOCH":"2026-03-10T00:01:50.876256","MEAN_MOTION":15.30293976,"ECCENTRICITY":0.0010522,"INCLINATION":97.2228,"RA_OF_ASC_NODE":111.963,"ARG_OF_PERICENTER":91.0204,"MEAN_ANOMALY":269.2242,"EPHEMERIS_TYPE":0,"CLASSIFICATION_TYPE":"U","NORAD_CAT_ID":46232,"ELEMENT_SET_NO":999,"REV_AT_EPOCH":30843,"BSTAR":0.00025120304,"MEAN_MOTION_DOT":7.299e-5,"MEAN_MOTION_DDOT":0},{"OBJECT_NAME":"STARLINK-32383","OBJECT_ID":"2024-204T","EPOCH":"2026-03-09T13:08:34.873440","MEAN_MOTION":15.30189917,"ECCENTRICITY":0.0001168,"INCLINATION":53.1607,"RA_OF_ASC_NODE":127.8864,"ARG_OF_PERICENTER":113.3459,"MEAN_ANOMALY":246.7665,"EPHEMERIS_TYPE":0,"CLASSIFICATION_TYPE":"U","NORAD_CAT_ID":61891,"ELEMENT_SET_NO":999,"REV_AT_EPOCH":7507,"BSTAR":-1.2773e-6,"MEAN_MOTION_DOT":-3.97e-6,"MEAN_MOTION_DDOT":0}]
